FENGYUN 1C DEB          
1 32372U 99025CZR 17327.72361805  .00001109  00000-0  13305-2 0  9999
2 32372  97.3158 289.1701 0481605  59.3384 305.4305 13.27745802506961
